[{"OBJECT_NAME":"STARLINK-11462 [DTC]","OBJECT_ID":"2024-249D","EPOCH":"2026-03-09T07:52:54.638688","MEAN_MOTION":15.70830095,"ECCENTRICITY":0.00050088,"INCLINATION":42.9983,"RA_OF_ASC_NODE":169.844,"ARG_OF_PERICENTER":292.4524,"MEAN_ANOMALY":67.5813,"EPHEMERIS_TYPE":0,"CLASSIFICATION_TYPE":"U","NORAD_CAT_ID":62412,"ELEMENT_SET_NO":999,"REV_AT_EPOCH":6942,"BSTAR":0.0023328824,"MEAN_MOTION_DOT":0.0031031,"MEAN_MOTION_DDOT":0},{"OBJECT_NAME":"DOVE 2","OBJECT_ID":"2013-015C","EPOCH":"2026-03-09T12:05:38.052096","MEAN_MOTION":15.68794519,"ECCENTRICITY":0.00170561,"INCLINATION":64.8558,"RA_OF_ASC_NODE":101.9902,"ARG_OF_PERICENTER":280.6272,"MEAN_ANOMALY":79.2958,"EPHEMERIS_TYPE":0,"CLASSIFICATION_TYPE":"U","NORAD_CAT_ID":39132,"ELEMENT_SET_NO":999,"REV_AT_EPOCH":71099,"BSTAR":0.00072172094,"MEAN_MOTION_DOT":0.00084334,"MEAN_MOTION_DDOT":0}]
